[{"OBJECT_NAME":"TECHNOSAT","OBJECT_ID":"2017-042E","EPOCH":"2026-03-09T21:27:07.546176","MEAN_MOTION":15.04288119,"ECCENTRICITY":0.00196291,"INCLINATION":97.4156,"RA_OF_ASC_NODE":230.4429,"ARG_OF_PERICENTER":75.0719,"MEAN_ANOMALY":285.2679,"EPHEMERIS_TYPE":0,"CLASSIFICATION_TYPE":"U","NORAD_CAT_ID":42829,"ELEMENT_SET_NO":999,"REV_AT_EPOCH":47177,"BSTAR":0.00032015047,"MEAN_MOTION_DOT":4.417e-5,"MEAN_MOTION_DDOT":0},{"OBJECT_NAME":"STARLINK-4473","OBJECT_ID":"2022-105N","EPOCH":"2026-03-09T14:56:46.914144","MEAN_MOTION":15.01265587,"ECCENTRICITY":0.0002777,"INCLINATION":97.6047,"RA_OF_ASC_NODE":310.139,"ARG_OF_PERICENTER":98.7216,"MEAN_ANOMALY":261.4323,"EPHEMERIS_TYPE":0,"CLASSIFICATION_TYPE":"U","NORAD_CAT_ID":53660,"ELEMENT_SET_NO":999,"REV_AT_EPOCH":19322,"BSTAR":4.9957e-6,"MEAN_MOTION_DOT":6.0e-8,"MEAN_MOTION_DDOT":0}]
